{
  "type": "FeatureCollection",
  "features": [
    {
      "type": "Feature",
      "properties": {
        "norad_id": 37781,
        "name": "HAIYANG-2A",
        "group": "resource",
        "lat": -33.12766275462283,
        "lon": 151.23026655760378,
        "alt_km": 974.5833722848865,
        "timestamp": "2025-12-02T07:10:08.766092+00:00",
        "meta_object_name": "HAIYANG-2A",
        "meta_object_id": "2011-043A",
        "meta_epoch": "2025-12-01T21:25:45.215616",
        "meta_mean_motion": 13.78833969,
        "meta_eccentricity": 0.0001637,
        "meta_inclination": 99.3377,
        "meta_ra_of_asc_node": 336.9945,
        "meta_arg_of_pericenter": 98.7164,
        "meta_mean_anomaly": 261.4173,
        "meta_ephemeris_type": 0,
        "meta_classification_type": "U",
        "meta_norad_cat_id": 37781,
        "meta_element_set_no": 999,
        "meta_rev_at_epoch": 71949,
        "meta_bstar": 5.1592e-05,
        "meta_mean_motion_dot": 8e-08,
        "meta_mean_motion_ddot": 0,
        "tle_line1": "1 37781U 11043A   25335.89288444  .00000008  00000+0  51592-4 0  9993",
        "tle_line2": "2 37781  99.3377 336.9945 0001637  98.7164 261.4173 13.78833969719498"
      },
      "geometry": {
        "type": "Point",
        "coordinates": [
          151.23026655760378,
          -33.12766275462283
        ]
      }
    },
    {
      "type": "Feature",
      "properties": {
        "norad_id": 37791,
        "name": "RASAT",
        "group": "resource",
        "lat": -47.68185581680995,
        "lon": -123.24855441781601,
        "alt_km": 684.9690774863075,
        "timestamp": "2025-12-02T07:10:08.766104+00:00",
        "meta_object_name": "RASAT",
        "meta_object_id": "2011-044D",
        "meta_epoch": "2025-12-01T20:55:09.738336",
        "meta_mean_motion": 14.67883519,
        "meta_eccentricity": 0.002196,
        "meta_inclination": 98.0657,
        "meta_ra_of_asc_node": 65.2906,
        "meta_arg_of_pericenter": 97.713,
        "meta_mean_anomaly": 34.8698,
        "meta_ephemeris_type": 0,
        "meta_classification_type": "U",
        "meta_norad_cat_id": 37791,
        "meta_element_set_no": 999,
        "meta_rev_at_epoch": 76423,
        "meta_bstar": 0.0001329,
        "meta_mean_motion_dot": 7.13e-06,
        "meta_mean_motion_ddot": 0,
        "tle_line1": "1 37791U 11044D   25335.87164049  .00000713  00000+0  13290-3 0  9992",
        "tle_line2": "2 37791  98.0657  65.2906 0021960  97.7130  34.8698 14.67883519764239"
      },
      "geometry": {
        "type": "Point",
        "coordinates": [
          -123.24855441781601,
          -47.68185581680995
        ]
      }
    },
    {
      "type": "Feature",
      "properties": {
        "norad_id": 37841,
        "name": "SRMSAT",
        "group": "resource",
        "lat": -1.4529477652730443,
        "lon": -4.842441430805833,
        "alt_km": 843.8143031619793,
        "timestamp": "2025-12-02T07:10:08.766114+00:00",
        "meta_object_name": "SRMSAT",
        "meta_object_id": "2011-058D",
        "meta_epoch": "2025-12-01T00:32:34.903680",
        "meta_mean_motion": 14.11504997,
        "meta_eccentricity": 0.00117686,
        "meta_inclination": 19.9697,
        "meta_ra_of_asc_node": 178.8696,
        "meta_arg_of_pericenter": 183.7167,
        "meta_mean_anomaly": 342.1767,
        "meta_ephemeris_type": 0,
        "meta_classification_type": "U",
        "meta_norad_cat_id": 37841,
        "meta_element_set_no": 999,
        "meta_rev_at_epoch": 72978,
        "meta_bstar": 9.4135979e-05,
        "meta_mean_motion_dot": 4.38e-06,
        "meta_mean_motion_ddot": 0,
        "tle_line1": "1 37841U 11058D   25335.02262620  .00000438  00000+0  94136-4 0  9997",
        "tle_line2": "2 37841  19.9697 178.8696 0011768 183.7167 342.1767 14.11504997729781"
      },
      "geometry": {
        "type": "Point",
        "coordinates": [
          -4.842441430805833,
          -1.4529477652730443
        ]
      }
    },
    {
      "type": "Feature",
      "properties": {
        "norad_id": 38012,
        "name": "PLEIADES 1A",
        "group": "resource",
        "lat": 13.55037260610798,
        "lon": 47.24036066352769,
        "alt_km": 698.5419291931785,
        "timestamp": "2025-12-02T07:10:08.766125+00:00",
        "meta_object_name": "PLEIADES 1A",
        "meta_object_id": "2011-076F",
        "meta_epoch": "2025-12-01T20:12:18.533952",
        "meta_mean_motion": 14.58543606,
        "meta_eccentricity": 0.0001433,
        "meta_inclination": 98.1835,
        "meta_ra_of_asc_node": 48.7781,
        "meta_arg_of_pericenter": 82.1765,
        "meta_mean_anomaly": 54.3557,
        "meta_ephemeris_type": 0,
        "meta_classification_type": "U",
        "meta_norad_cat_id": 38012,
        "meta_element_set_no": 999,
        "meta_rev_at_epoch": 74322,
        "meta_bstar": 0.0001091,
        "meta_mean_motion_dot": 4.61e-06,
        "meta_mean_motion_ddot": 0,
        "tle_line1": "1 38012U 11076F   25335.84188118  .00000461  00000+0  10910-3 0  9990",
        "tle_line2": "2 38012  98.1835  48.7781 0001433  82.1765  54.3557 14.58543606743224"
      },
      "geometry": {
        "type": "Point",
        "coordinates": [
          47.24036066352769,
          13.55037260610798
        ]
      }
    },
    {
      "type": "Feature",
      "properties": {
        "norad_id": 38038,
        "name": "ZIYUAN 1-02C (ZY 1-02C)",
        "group": "resource",
        "lat": -26.98606157434064,
        "lon": 46.837663071055424,
        "alt_km": 775.4828292052389,
        "timestamp": "2025-12-02T07:10:08.766136+00:00",
        "meta_object_name": "ZIYUAN 1-02C (ZY 1-02C)",
        "meta_object_id": "2011-079A",
        "meta_epoch": "2025-12-01T21:31:53.766912",
        "meta_mean_motion": 14.37991663,
        "meta_eccentricity": 0.00067,
        "meta_inclination": 98.4348,
        "meta_ra_of_asc_node": 42.1101,
        "meta_arg_of_pericenter": 168.5635,
        "meta_mean_anomaly": 246.6253,
        "meta_ephemeris_type": 0,
        "meta_classification_type": "U",
        "meta_norad_cat_id": 38038,
        "meta_element_set_no": 999,
        "meta_rev_at_epoch": 73085,
        "meta_bstar": 0.00019752,
        "meta_mean_motion_dot": 5.54e-06,
        "meta_mean_motion_ddot": 0,
        "tle_line1": "1 38038U 11079A   25335.89715008  .00000554  00000+0  19752-3 0  9996",
        "tle_line2": "2 38038  98.4348  42.1101 0006700 168.5635 246.6253 14.37991663730856"
      },
      "geometry": {
        "type": "Point",
        "coordinates": [
          46.837663071055424,
          -26.98606157434064
        ]
      }
    },
    {
      "type": "Feature",
      "properties": {
        "norad_id": 38046,
        "name": "ZIYUAN 3-1 (ZY 3-1)",
        "group": "resource",
        "lat": -53.37451200314676,
        "lon": 52.248012585618184,
        "alt_km": 375.69956282993644,
        "timestamp": "2025-12-02T07:10:08.766146+00:00",
        "meta_object_name": "ZIYUAN 3-1 (ZY 3-1)",
        "meta_object_id": "2012-001A",
        "meta_epoch": "2025-12-01T20:40:04.198080",
        "meta_mean_motion": 15.66528182,
        "meta_eccentricity": 0.0002252,
        "meta_inclination": 97.1784,
        "meta_ra_of_asc_node": 42.0395,
        "meta_arg_of_pericenter": 36.4349,
        "meta_mean_anomaly": 323.7064,
        "meta_ephemeris_type": 0,
        "meta_classification_type": "U",
        "meta_norad_cat_id": 38046,
        "meta_element_set_no": 999,
        "meta_rev_at_epoch": 77326,
        "meta_bstar": 0.00065121,
        "meta_mean_motion_dot": 0.00068177,
        "meta_mean_motion_ddot": 0,
        "tle_line1": "1 38046U 12001A   25335.86115970  .00068177  00000+0  65121-3 0  9996",
        "tle_line2": "2 38046  97.1784  42.0395 0002252  36.4349 323.7064 15.66528182773266"
      },
      "geometry": {
        "type": "Point",
        "coordinates": [
          52.248012585618184,
          -53.37451200314676
        ]
      }
    },
    {
      "type": "Feature",
      "properties": {
        "norad_id": 38338,
        "name": "ARIRANG-3 (KOMPSAT-3)",
        "group": "resource",
        "lat": 26.61201852959519,
        "lon": 115.02042282370884,
        "alt_km": 690.1297536376278,
        "timestamp": "2025-12-02T07:10:08.766157+00:00",
        "meta_object_name": "ARIRANG-3 (KOMPSAT-3)",
        "meta_object_id": "2012-025B",
        "meta_epoch": "2025-12-01T20:36:51.554592",
        "meta_mean_motion": 14.61688109,
        "meta_eccentricity": 0.0006128,
        "meta_inclination": 98.3306,
        "meta_ra_of_asc_node": 290.3674,
        "meta_arg_of_pericenter": 12.7,
        "meta_mean_anomaly": 347.4353,
        "meta_ephemeris_type": 0,
        "meta_classification_type": "U",
        "meta_norad_cat_id": 38338,
        "meta_element_set_no": 999,
        "meta_rev_at_epoch": 72251,
        "meta_bstar": 0.00015014,
        "meta_mean_motion_dot": 6.99e-06,
        "meta_mean_motion_ddot": 0,
        "tle_line1": "1 38338U 12025B   25335.85893003  .00000699  00000+0  15014-3 0  9996",
        "tle_line2": "2 38338  98.3306 290.3674 0006128  12.7000 347.4353 14.61688109722514"
      },
      "geometry": {
        "type": "Point",
        "coordinates": [
          115.02042282370884,
          26.61201852959519
        ]
      }
    }
  ]
}